COSMOS 2251 DEB         
1 37535U 93036BNQ 24366.78430447  .00010568  00000+0  24345-2 0  9991
2 37535  74.0252  10.9020 0031568 237.2421 296.9109 14.55112999802867
COSMOS 2251 DEB         
1 37537U 93036BNS 24366.76740331  .00001827  00000+0  61821-3 0  9996
2 37537  74.0106 182.4435 0051196  45.1826 315.3471 14.36806656800636
COSMOS 2251 DEB         
1 37538U 93036BNT 24360.95261654  .00082842  00000+0  56064-2 0  9996
2 37538  74.0031 188.3554 0023048  52.7512 307.5775 15.05866902779960
COSMOS 2251 DEB         
1 37546U 93036BPB 24364.45412050  .00023189  00000+0  41017-2 0  9993
2 37546  74.0278  58.3464 0006609 240.8108 119.2400 14.67279078801411
COSMOS 2251 DEB         
1 37547U 93036BPC 24366.63146071  .00879234  00000+0  14059-1 0  9998
2 37547  73.9980 138.6365 0027099   8.6979 351.4697 15.50081746614162
COSMOS 2251 DEB         
1 37959U 93036BPJ 24365.74400765  .00010615  00000+0  24034-2 0  9994
2 37959  74.0129 356.6292 0062928 224.9915 308.8782 14.54998077750743
COSMOS 2251 DEB         
1 37960U 93036BPK 24366.44811841  .00006625  00000+0  30259-2 0  9997
2 37960  74.0625  73.0316 0252305 174.9196 185.4597 14.06222406725353
COSMOS 2251 DEB         
1 37961U 93036BPL 24362.96265076  .00010872  00000+0  25499-2 0  9993
2 37961  74.0440  80.2261 0045245 251.6157 108.0083 14.53948087749743
COSMOS 2251 DEB         
1 37966U 93036BPR 24364.95175675  .00040734  00000+0  48172-2 0  9997
2 37966  73.9854 216.8577 0018456 157.0909 203.1097 14.84301128803465
COSMOS 2251 DEB         
1 37967U 93036BPS 24365.88229409  .00016509  00000+0  49000-2 0  9990
2 37967  74.0200  57.5365 0165685 279.5176  78.7286 14.35572593597492
COSMOS 2251 DEB         
1 37968U 93036BPT 24365.42475913  .00018190  00000+0  16602-2 0  9994
2 37968  74.0031 254.3255 0094990 101.7049 259.4810 14.91609380550256
COSMOS 2251 DEB         
1 37971U 93036BPW 24366.59870863  .00016030  00000+0  46385-2 0  9992
2 37971  73.9966 329.1638 0076566 189.2156 170.7601 14.42785081556753
COSMOS 2251 DEB         
1 37973U 93036BPY 24362.02699708  .00004010  00000+0  12740-2 0  9998
2 37973  74.0322 232.8470 0036756  35.5858 324.7737 14.39865573784234
COSMOS 2251 DEB         
1 37975U 93036BQA 24366.02835549  .00048251  00000+0  89863-2 0  9994
2 37975  74.0101 276.1378 0118902 350.7621   9.1355 14.60304960646568
COSMOS 2251 DEB         
1 37977U 93036BQC 24364.45246412  .00147088  00000+0  11287-1 0  9998
2 37977  73.9697  41.4963 0024597 291.4375  68.4188 15.00761984 34150
COSMOS 2251 DEB         
1 37978U 93036BQD 24365.98624343  .00076386  00000+0  58954-2 0  9996
2 37978  74.0555 100.5263 0038172 220.6974 139.1360 15.00587499 31184
COSMOS 2251 DEB         
1 37985U 93036BQL 24366.24537483  .00000408  00000+0  15117-3 0  9999
2 37985  74.0233 181.6434 0020938  27.9392 332.2880 14.35322192599454
COSMOS 2251 DEB         
1 37988U 93036BQP 24365.19545644  .00014037  00000+0  26088-2 0  9994
2 37988  74.0662 333.0675 0067651 104.4420 256.4268 14.63694837190249
COSMOS 2251 DEB         
1 37993U 93036BQU 24366.57245017  .00015732  00000+0  36678-2 0  9993
2 37993  74.0255 105.2411 0027358 283.9276  75.8844 14.54554481750876
COSMOS 2251 DEB         
1 37994U 93036BQV 24366.82122999  .00003159  00000+0  10380-2 0  9997
2 37994  74.0350 193.9644 0023233   0.0117   0.1033 14.38542604720880
COSMOS 2251 DEB         
1 37998U 93036BQZ 24364.19784005  .00005175  00000+0  15334-2 0  9995
2 37998  74.0361 163.8753 0020497 326.5715  33.4146 14.43470871592548
COSMOS 2251 DEB         
1 38001U 93036BRC 24365.69260799  .00014164  00000+0  20742-2 0  9993
2 38001  74.0062  93.7184 0073246 329.7587 180.7137 14.73807084795110
COSMOS 2251 DEB         
1 38004U 93036BRF 24366.25345453  .00104832  00000+0  10243-1 0  9996
2 38004  74.0295 356.2259 0008094 277.4336  82.5927 14.91757249606867
COSMOS 2251 DEB         
1 38006U 93036BRH 24365.62443768  .00028824  00000+0  89450-2 0  9999
2 38006  73.8633 329.8541 0082967 340.2112  19.5827 14.38980995780380
COSMOS 2251 DEB         
1 38054U 93036BRL 24366.44480426  .00012383  00000+0  10920-1 0  9993
2 38054  73.9564 111.0776 0359850 157.1422 325.1530 13.59523121624688
COSMOS 2251 DEB         
1 38055U 93036BRM 24365.73845866  .00014578  00000+0  22703-2 0  9999
2 38055  74.0160 165.1910 0072925  20.3694 351.1623 14.71182438555693
COSMOS 2251 DEB         
1 38060U 93036BRS 24366.36998366  .00006459  00000+0  12791-2 0  9994
2 38060  74.0437 238.8512 0060053  74.9128 285.8672 14.61330729669003
COSMOS 2251 DEB         
1 38062U 93036BRU 24366.47392502  .00028394  00000+0  38521-2 0  9999
2 38062  74.0139 260.7473 0020223 133.4332  39.8424 14.78625108578846
COSMOS 2251 DEB         
1 38064U 93036BRW 24365.86694681  .00010539  00000+0  25226-2 0  9996
2 38064  74.0246  60.9730 0052509 267.1950  92.3201 14.52787164724715
COSMOS 2251 DEB         
1 38067U 93036BRZ 24366.86203975  .00004626  00000+0  94924-3 0  9994
2 38067  74.0149 215.6375 0071924  90.0121 282.7176 14.59328051575071
