OBJECT_NAME,OBJECT_ID,EPOCH,MEAN_MOTION,ECCENTRICITY,INCLINATION,RA_OF_ASC_NODE,ARG_OF_PERICENTER,MEAN_ANOMALY,EPHEMERIS_TYPE,CLASSIFICATION_TYPE,NORAD_CAT_ID,ELEMENT_SET_NO,REV_AT_EPOCH,BSTAR,MEAN_MOTION_DOT,MEAN_MOTION_DDOT
COSMOS 2251 DEB,1993-036BNQ,2024-12-31T18:49:23.906208,14.55112999,0.0031568,74.0252,10.902,237.2421,296.9109,0,U,37535,999,80286,2.43E-03,1.06E-04,0
COSMOS 2251 DEB,1993-036BNS,2024-12-31T18:25:03.645984,14.36806656,0.0051196,74.0106,182.4435,45.1826,315.3471,0,U,37537,999,80063,6.18E-04,1.83E-05,0
COSMOS 2251 DEB,1993-036BNT,2024-12-25T22:51:46.069056,15.05866902,0.0023048,74.0031,188.3554,52.7512,307.5775,0,U,37538,999,77996,5.61E-03,8.28E-04,0
COSMOS 2251 DEB,1993-036BPB,2024-12-29T10:53:56.011200,14.67279078,0.0006609,74.0278,58.3464,240.8108,119.24,0,U,37546,999,80141,4.10E-03,2.32E-04,0
COSMOS 2251 DEB,1993-036BPC,2024-12-31T15:09:18.205344,15.50081746,0.0027099,73.998,138.6365,8.6979,351.4697,0,U,37547,999,61416,1.41E-02,8.79E-03,0
COSMOS 2251 DEB,1993-036BPJ,2024-12-30T17:51:22.260960,14.54998077,0.0062928,74.0129,356.6292,224.9915,308.8782,0,U,37959,999,75074,2.40E-03,1.06E-04,0
COSMOS 2251 DEB,1993-036BPK,2024-12-31T10:45:17.430624,14.06222406,0.0252305,74.0625,73.0316,174.9196,185.4597,0,U,37960,999,72535,3.03E-03,6.63E-05,0
COSMOS 2251 DEB,1993-036BPL,2024-12-27T23:06:13.025664,14.53948087,0.0045245,74.044,80.2261,251.6157,108.0083,0,U,37961,999,74974,2.55E-03,1.09E-04,0
COSMOS 2251 DEB,1993-036BPR,2024-12-29T22:50:31.783200,14.84301128,0.0018456,73.9854,216.8577,157.0909,203.1097,0,U,37966,999,80346,4.82E-03,4.07E-04,0
COSMOS 2251 DEB,1993-036BPS,2024-12-30T21:10:30.209376,14.35572593,0.0165685,74.02,57.5365,279.5176,78.7286,0,U,37967,999,59749,4.90E-03,1.65E-04,0
COSMOS 2251 DEB,1993-036BPT,2024-12-30T10:11:39.188832,14.9160938,0.009499,74.0031,254.3255,101.7049,259.481,0,U,37968,999,55025,1.66E-03,1.82E-04,0
COSMOS 2251 DEB,1993-036BPW,2024-12-31T14:22:08.425632,14.42785081,0.0076566,73.9966,329.1638,189.2156,170.7601,0,U,37971,999,55675,4.64E-03,1.60E-04,0
COSMOS 2251 DEB,1993-036BPY,2024-12-27T00:38:52.547712,14.39865573,0.0036756,74.0322,232.847,35.5858,324.7737,0,U,37973,999,78423,1.27E-03,4.01E-05,0
COSMOS 2251 DEB,1993-036BQA,2024-12-31T00:40:49.914336,14.6030496,0.0118902,74.0101,276.1378,350.7621,9.1355,0,U,37975,999,64656,8.99E-03,4.83E-04,0
COSMOS 2251 DEB,1993-036BQC,2024-12-29T10:51:32.899968,15.00761984,0.0024597,73.9697,41.4963,291.4375,68.4188,0,U,37977,999,3415,1.13E-02,1.47E-03,0
COSMOS 2251 DEB,1993-036BQD,2024-12-30T23:40:11.432352,15.00587499,0.0038172,74.0555,100.5263,220.6974,139.136,0,U,37978,999,3118,5.90E-03,7.64E-04,0
COSMOS 2251 DEB,1993-036BQL,2024-12-31T05:53:20.385312,14.35322192,0.0020938,74.0233,181.6434,27.9392,332.288,0,U,37985,999,59945,1.51E-04,4.08E-06,0
COSMOS 2251 DEB,1993-036BQP,2024-12-30T04:41:27.436416,14.63694837,0.0067651,74.0662,333.0675,104.442,256.4268,0,U,37988,999,19024,2.61E-03,1.40E-04,0
COSMOS 2251 DEB,1993-036BQU,2024-12-31T13:44:19.694688,14.54554481,0.0027358,74.0255,105.2411,283.9276,75.8844,0,U,37993,999,75087,3.67E-03,1.57E-04,0
COSMOS 2251 DEB,1993-036BQV,2024-12-31T19:42:34.271136,14.38542604,0.0023233,74.035,193.9644,0.0117,0.1033,0,U,37994,999,72088,1.04E-03,3.16E-05,0
COSMOS 2251 DEB,1993-036BQZ,2024-12-29T04:44:53.380320,14.43470871,0.0020497,74.0361,163.8753,326.5715,33.4146,0,U,37998,999,59254,1.53E-03,5.18E-05,0
COSMOS 2251 DEB,1993-036BRC,2024-12-30T16:37:21.330336,14.73807084,0.0073246,74.0062,93.7184,329.7587,180.7137,0,U,38001,999,79511,2.07E-03,1.42E-04,0
COSMOS 2251 DEB,1993-036BRF,2024-12-31T06:04:58.471392,14.91757249,0.0008094,74.0295,356.2259,277.4336,82.5927,0,U,38004,999,60686,1.02E-02,1.05E-03,0
COSMOS 2251 DEB,1993-036BRH,2024-12-30T14:59:11.415552,14.38980995,0.0082967,73.8633,329.8541,340.2112,19.5827,0,U,38006,999,78038,8.95E-03,2.88E-04,0
COSMOS 2251 DEB,1993-036BRL,2024-12-31T10:40:31.088064,13.59523121,0.035985,73.9564,111.0776,157.1422,325.153,0,U,38054,999,62468,1.09E-02,1.24E-04,0
COSMOS 2251 DEB,1993-036BRM,2024-12-30T17:43:22.828224,14.71182438,0.0072925,74.016,165.191,20.3694,351.1623,0,U,38055,999,55569,2.27E-03,1.46E-04,0
COSMOS 2251 DEB,1993-036BRS,2024-12-31T08:52:46.588224,14.61330729,0.0060053,74.0437,238.8512,74.9128,285.8672,0,U,38060,999,66900,1.28E-03,6.46E-05,0
COSMOS 2251 DEB,1993-036BRU,2024-12-31T11:22:27.121728,14.78625108,0.0020223,74.0139,260.7473,133.4332,39.8424,0,U,38062,999,57884,3.85E-03,2.84E-04,0
COSMOS 2251 DEB,1993-036BRW,2024-12-30T20:48:24.204384,14.52787164,0.0052509,74.0246,60.973,267.195,92.3201,0,U,38064,999,72471,2.52E-03,1.05E-04,0
COSMOS 2251 DEB,1993-036BRZ,2024-12-31T20:41:20.234400,14.59328051,0.0071924,74.0149,215.6375,90.0121,282.7176,0,U,38067,999,57507,9.49E-04,4.63E-05,0
